1 20253U 89077A   26180.39917263 -.00000361  00000-0  00000+0 0  9990
2 20253  12.4180 351.0897 0003809  61.1791 134.6850  1.00271186260683
1 20776U 90079A   26162.20198486  .00000132  00000-0  00000-0 0  9998
2 20776  13.3424 349.8525 0002400  96.2313 279.5534  1.00274127130831
1 22787U 93056A   26179.93878728  .00000129  00000-0  00000-0 0  9998
2 22787  11.8987   3.4895 0004394   8.5156 271.6187  1.00274265118667
1 23467U 95003A   26180.36155777 -.00000017  00000-0  00000+0 0  9995
2 23467   9.6865  13.1436 0002937  81.9694 124.7022  1.00273968115072
1 23967U 96042A   26180.43643728 -.00000292  00000-0  00000+0 0  9995
2 23967  11.1282  17.0150 0006148 111.2666 258.9638  1.00209402109616
1 25544U 98067A   26180.50883825  .00005660  00000-0  10902-3 0  9998
2 25544  51.6320 239.0980 0004278 246.9974 113.0563 15.49477794573665
1 25967U 99063A   26180.37000919 -.00000185  00000-0  00000+0 0  9996
2 25967   9.8449  27.1462 0001553  73.9701 286.4977  1.00268568 97463
1 27168U 02001A   26179.94874226  .00000101  00000-0  00000-0 0  9996
2 27168  11.1930  21.8343 0099503   8.8197 246.8473  1.00271817 33075
1 27607U 02058C   26180.36045259  .00000938  00000-0  12784-3 0  9993
2 27607  64.5520  91.3218 0074978 260.2054  99.0580 14.83071475266267
1 28117U 03057A   26179.91859759 -.00000100  00000-0  00000-0 0  9994
2 28117   8.9439  33.7688 0002437  75.3065 214.2338  1.00272151 82564
1 28899U 05044A   26179.97527897 -.00000253  00000-0  00000-0 0  9999
2 28899   5.1093  43.6742 0003334  43.5584 324.4231  1.00271452 75647
1 30794U 07007B   26179.99886058 -.00000265  00000-0  00000-0 0  9999
2 30794   5.3296  73.6001 0003702  30.3642 267.9258  1.00270604 70812
1 32294U 07056B   26179.88057644  .00000146  00000-0  00000-0 0  9996
2 32294   5.2811  73.3657 0003423  28.3331 157.3576  1.00271879 68319
1 35943U 09054B   26180.52970310  .00000036  00000-0  00000+0 0  9994
2 35943   0.0649 129.6478 0003190 330.6318  71.0318  1.00272128 61436
1 36582U 10021B   26180.30592257  .00000099  00000-0  00000+0 0  9995
2 36582   0.0375 190.8608 0002639 274.4156 295.4841  1.00269409 59077
1 38098U 12011A   26180.53143646 -.00000048  00000-0  00000+0 0  9994
2 38098   0.0202  29.2624 0001945  89.0930  62.6841  1.00272455  7311
1 39034U 12075A   26180.52762310  .00000111  00000-0  00000+0 0  9999
2 39034   0.0668 351.1270 0003904 112.9309  56.2703  1.00269872 49282
1 39215U 13038A   26180.30826257  .00000143  00000-0  00000+0 0  9992
2 39215   2.9983   1.2638 0002268 106.7535 305.2411  1.00271442 44148
1 40296U 14069A   26179.15207071  .00000299  00000-0  00000-0 0  9999
2 40296  63.4470 214.2575 6644174 270.4926  19.7925  2.00595134 85459
1 40931U 15052B   25151.18580782  .00001310  00000-0  87238-4 0  9990
2 40931   6.0001  24.1284 0012872 339.0660  20.8941 14.78806187523042
1 43678U 18084H   26180.50690872  .00002124  00000-0  17351-3 0  9992
2 43678  98.1200  17.2527 0013068 131.9291 228.3048 15.00504862418065
1 43700U 18090A   26180.30843590  .00000000  00000-0  00000+0 0  9990
2 43700   0.0280  28.9028 0002229 103.4866 281.8248  1.00270954 27794
1 43803U 18099AX  26179.64306094  .00015787  00000-0  48155-3 0  9996
2 43803  97.4130 242.5189 0005256 213.1026 146.9889 15.34009895415388
1 44453U 19046A   26177.68974627 -.00000122  00000-0  00000-0 0  9998
2 44453  63.1391  49.5370 7078242 274.8909  14.6245  2.00598018 50530
1 44909U 19096E   26180.51417038  .00000003  00000-0 -41581-4 0  9994
2 44909  82.5229 331.5128 0218520 115.4686 246.9198 12.79749009303922
1 45254U 20015A   26179.93283428 -.00000062  00000-0  00000-0 0  9991
2 45254  65.5432 317.7373 6853521 277.7077  15.4495  2.00605286 46529
1 52145U 22030A   26179.43476303  .00000153  00000-0  00000-0 0  9998
2 52145  62.6786 139.5737 6787004 272.8507  17.6293  2.00612297 31250
1 57167U 23091B   26010.59363612  .08733485  25619-5  12458-2 0  9993
2 57167  97.4978  91.1570 0009532 282.8011  77.2220 16.34765267141469
1 59112U 24043Q   26180.39668484  .00037714  00000-0  47296-3 0  9999
2 59112  97.5535 331.5497 0007231 155.9821 204.1774 15.59630606129794
1 67291U 25313AV  26180.14500566  .00012367  00000-0  47457-3 0  9992
2 67291  97.3929 255.2320 0007381 315.5978  44.4668 15.26591769 27813
1 26635U 00080A   21013.46269075 0.00000000  00000-0  00000-0 0    09
2 26635   9.2857  29.8038 0014383 186.3086 173.6859  1.00273100    09
1 34810U 09020A   26118.58802400 0.00000000  00000-0  00000-0 0    05
2 34810   3.0809  80.0043 0003222 250.4250 109.5484  1.00270000    01
1 40614U 15022B   25359.93496764 0.00000000  00000-0  00000-0 0    00
2 40614   0.0160 108.2839 0003453 352.8976   7.0980  1.00270000    04
